{"type": "FeatureCollection", "features": [ {"type": "Feature", "properties": {"norad_id": 34529, "name": "IRIDIUM 33 DEB", "group": "iridium-33-debris", "lat": 58.80268790697031, "lon": 42.93120734348952, "alt_km": 752.8258895370618, "timestamp": "2025-12-09T05:43:21.110826+00:00", "meta": {"OBJECT_NAME": "IRIDIUM 33 DEB", "OBJECT_ID": "1997-051HW", "EPOCH": "2025-12-08T04:26:38.874624", "MEAN_MOTION": 14.40610073, "ECCENTRICITY": 0.00042345, "INCLINATION": 86.3644, "RA_OF_ASC_NODE": 37.3532, "ARG_OF_PERICENTER": 192.5106, "MEAN_ANOMALY": 167.5989, "EPHEMERIS_TYPE": 0, "CLASSIFICATION_TYPE": "U", "NORAD_CAT_ID": 34529, "ELEMENT_SET_NO": 999, "REV_AT_EPOCH": 88076, "BSTAR": 0.00018799813, "MEAN_MOTION_DOT": 6.19e-06, "MEAN_MOTION_DDOT": 0}, "tle": {"line1": "1 34529U 97051HW  25342.18517216  .00000619  00000+0  18800-3 0  9997", "line2": "2 34529  86.3644  37.3532 0004234 192.5106 167.5989 14.40610073880766"}}, "geometry": {"type": "Point", "coordinates": [42.93120734348952, 58.80268790697031]}}, {"type": "Feature", "properties": {"norad_id": 34538, "name": "IRIDIUM 33 DEB", "group": "iridium-33-debris", "lat": -50.345202142562506, "lon": -168.40521127895306, "alt_km": 764.7367802466933, "timestamp": "2025-12-09T05:43:21.110837+00:00", "meta": {"OBJECT_NAME": "IRIDIUM 33 DEB", "OBJECT_ID": "1997-051JF", "EPOCH": "2025-12-08T12:43:03.891360", "MEAN_MOTION": 14.42610474, "ECCENTRICITY": 0.00333253, "INCLINATION": 86.2772, "RA_OF_ASC_NODE": 7.3997, "ARG_OF_PERICENTER": 342.2911, "MEAN_ANOMALY": 171.1189, "EPHEMERIS_TYPE": 0, "CLASSIFICATION_TYPE": "U", "NORAD_CAT_ID": 34538, "ELEMENT_SET_NO": 999, "REV_AT_EPOCH": 87695, "BSTAR": 0.0013892431, "MEAN_MOTION_DOT": 4.663e-05, "MEAN_MOTION_DDOT": 0}, "tle": {"line1": "1 34538U 97051JF  25342.52990615  .00004663  00000+0  13892-2 0  9991", "line2": "2 34538  86.2772   7.3997 0033325 342.2911 171.1189 14.42610474876956"}}, "geometry": {"type": "Point", "coordinates": [-168.40521127895306, -50.345202142562506]}}, {"type": "Feature", "properties": {"norad_id": 34540, "name": "IRIDIUM 33 DEB", "group": "iridium-33-debris", "lat": -58.27083198464358, "lon": 135.1964870369296, "alt_km": 647.3430759319881, "timestamp": "2025-12-09T05:43:21.110866+00:00", "meta": {"OBJECT_NAME": "IRIDIUM 33 DEB", "OBJECT_ID": "1997-051JH", "EPOCH": "2025-12-08T16:26:16.783008", "MEAN_MOTION": 14.75185439, "ECCENTRICITY": 0.0015702, "INCLINATION": 86.3111, "RA_OF_ASC_NODE": 309.4602, "ARG_OF_PERICENTER": 173.5881, "MEAN_ANOMALY": 6.9774, "EPHEMERIS_TYPE": 0, "CLASSIFICATION_TYPE": "U", "NORAD_CAT_ID": 34540, "ELEMENT_SET_NO": 999, "REV_AT_EPOCH": 88961, "BSTAR": 0.0023969, "MEAN_MOTION_DOT": 0.00016265, "MEAN_MOTION_DDOT": 0}, "tle": {"line1": "1 34540U 97051JH  25342.68491647  .00016265  00000+0  23969-2 0  9999", "line2": "2 34540  86.3111 309.4602 0015702 173.5881   6.9774 14.75185439889612"}}, "geometry": {"type": "Point", "coordinates": [135.1964870369296, -58.27083198464358]}}, {"type": "Feature", "properties": {"norad_id": 34648, "name": "IRIDIUM 33 DEB", "group": "iridium-33-debris", "lat": 70.27091409961423, "lon": 93.22445226597964, "alt_km": 972.5498553445077, "timestamp": "2025-12-09T05:43:21.110878+00:00", "meta": {"OBJECT_NAME": "IRIDIUM 33 DEB", "OBJECT_ID": "1997-051JZ", "EPOCH": "2025-12-08T20:41:39.003936", "MEAN_MOTION": 14.11300262, "ECCENTRICITY": 0.0183955, "INCLINATION": 86.3913, "RA_OF_ASC_NODE": 283.5113, "ARG_OF_PERICENTER": 310.9542, "MEAN_ANOMALY": 47.5843, "EPHEMERIS_TYPE": 0, "CLASSIFICATION_TYPE": "U", "NORAD_CAT_ID": 34648, "ELEMENT_SET_NO": 999, "REV_AT_EPOCH": 84906, "BSTAR": 0.013206, "MEAN_MOTION_DOT": 0.00028062, "MEAN_MOTION_DDOT": 0}, "tle": {"line1": "1 34648U 97051JZ  25342.86225699  .00028062  00000+0  13206-1 0  9990", "line2": "2 34648  86.3913 283.5113 0183955 310.9542  47.5843 14.11300262849063"}}, "geometry": {"type": "Point", "coordinates": [93.22445226597964, 70.27091409961423]}}, {"type": "Feature", "properties": {"norad_id": 34651, "name": "IRIDIUM 33 DEB", "group": "iridium-33-debris", "lat": -13.2745349223519, "lon": 141.18836011217854, "alt_km": 877.833940527993, "timestamp": "2025-12-09T05:43:21.110889+00:00", "meta": {"OBJECT_NAME": "IRIDIUM 33 DEB", "OBJECT_ID": "1997-051KC", "EPOCH": "2025-12-08T11:15:25.709184", "MEAN_MOTION": 14.25701829, "ECCENTRICITY": 0.01419793, "INCLINATION": 86.2851, "RA_OF_ASC_NODE": 142.3937, "ARG_OF_PERICENTER": 217.4974, "MEAN_ANOMALY": 141.625, "EPHEMERIS_TYPE": 0, "CLASSIFICATION_TYPE": "U", "NORAD_CAT_ID": 34651, "ELEMENT_SET_NO": 999, "REV_AT_EPOCH": 85835, "BSTAR": 0.0043129114, "MEAN_MOTION_DOT": 0.00011398, "MEAN_MOTION_DDOT": 0}, "tle": {"line1": "1 34651U 97051KC  25342.46904756  .00011398  00000+0  43129-2 0  9990", "line2": "2 34651  86.2851 142.3937 0141979 217.4974 141.6250 14.25701829858352"}}, "geometry": {"type": "Point", "coordinates": [141.18836011217854, -13.2745349223519]}}, {"type": "Feature", "properties": {"norad_id": 34652, "name": "IRIDIUM 33 DEB", "group": "iridium-33-debris", "lat": -59.60577955058028, "lon": -24.720301587523203, "alt_km": 675.6668090630174, "timestamp": "2025-12-09T05:43:21.110900+00:00", "meta": {"OBJECT_NAME": "IRIDIUM 33 DEB", "OBJECT_ID": "1997-051KD", "EPOCH": "2025-12-08T10:58:52.274208", "MEAN_MOTION": 14.61994532, "ECCENTRICITY": 0.00263276, "INCLINATION": 86.3309, "RA_OF_ASC_NODE": 341.9078, "ARG_OF_PERICENTER": 313.8102, "MEAN_ANOMALY": 199.1921, "EPHEMERIS_TYPE": 0, "CLASSIFICATION_TYPE": "U", "NORAD_CAT_ID": 34652, "ELEMENT_SET_NO": 999, "REV_AT_EPOCH": 88421, "BSTAR": 0.0013948529, "MEAN_MOTION_DOT": 7.048e-05, "MEAN_MOTION_DDOT": 0}, "tle": {"line1": "1 34652U 97051KD  25342.45754947  .00007048  00000+0  13949-2 0  9999", "line2": "2 34652  86.3309 341.9078 0026327 313.8102 199.1921 14.61994532884210"}}, "geometry": {"type": "Point", "coordinates": [-24.720301587523203, -59.60577955058028]}}, {"type": "Feature", "properties": {"norad_id": 34690, "name": "IRIDIUM 33 DEB", "group": "iridium-33-debris", "lat": -70.26068215787149, "lon": -131.31982018659104, "alt_km": 723.3914419770517, "timestamp": "2025-12-09T05:43:21.110919+00:00", "meta": {"OBJECT_NAME": "IRIDIUM 33 DEB", "OBJECT_ID": "1997-051KM", "EPOCH": "2025-12-08T10:30:30.417984", "MEAN_MOTION": 14.55072153, "ECCENTRICITY": 0.0011347, "INCLINATION": 86.3781, "RA_OF_ASC_NODE": 38.8609, "ARG_OF_PERICENTER": 42.3651, "MEAN_ANOMALY": 337.2533, "EPHEMERIS_TYPE": 0, "CLASSIFICATION_TYPE": "U", "NORAD_CAT_ID": 34690, "ELEMENT_SET_NO": 999, "REV_AT_EPOCH": 88032, "BSTAR": 0.00077031918, "MEAN_MOTION_DOT": 3.344e-05, "MEAN_MOTION_DDOT": 0}, "tle": {"line1": "1 34690U 97051KM  25342.43785206  .00003344  00000+0  77032-3 0  9990", "line2": "2 34690  86.3781  38.8609 0011347  42.3651 337.2533 14.55072153880328"}}, "geometry": {"type": "Point", "coordinates": [-131.31982018659104, -70.26068215787149]}}, {"type": "Feature", "properties": {"norad_id": 34693, "name": "IRIDIUM 33 DEB", "group": "iridium-33-debris", "lat": 69.18600229727046, "lon": 115.77734034032842, "alt_km": 473.165898409542, "timestamp": "2025-12-09T05:43:21.110940+00:00", "meta": {"OBJECT_NAME": "IRIDIUM 33 DEB", "OBJECT_ID": "1997-051KQ", "EPOCH": "2025-12-08T15:50:05.258976", "MEAN_MOTION": 15.26461537, "ECCENTRICITY": 0.0014846, "INCLINATION": 86.3061, "RA_OF_ASC_NODE": 305.849, "ARG_OF_PERICENTER": 59.4216, "MEAN_ANOMALY": 113.0405, "EPHEMERIS_TYPE": 0, "CLASSIFICATION_TYPE": "U", "NORAD_CAT_ID": 34693, "ELEMENT_SET_NO": 999, "REV_AT_EPOCH": 88852, "BSTAR": 0.0056203, "MEAN_MOTION_DOT": 0.00149619, "MEAN_MOTION_DDOT": 0}, "tle": {"line1": "1 34693U 97051KQ  25342.65978309  .00149619  00000+0  56203-2 0  9997", "line2": "2 34693  86.3061 305.8490 0014846  59.4216 113.0405 15.26461537888525"}}, "geometry": {"type": "Point", "coordinates": [115.77734034032842, 69.18600229727046]}}, {"type": "Feature", "properties": {"norad_id": 34696, "name": "IRIDIUM 33 DEB", "group": "iridium-33-debris", "lat": -84.26748027880956, "lon": -109.18754909981732, "alt_km": 681.5277815242735, "timestamp": "2025-12-09T05:43:21.110960+00:00", "meta": {"OBJECT_NAME": "IRIDIUM 33 DEB", "OBJECT_ID": "1997-051KT", "EPOCH": "2025-12-08T14:27:39.651264", "MEAN_MOTION": 14.64750758, "ECCENTRICITY": 0.0074318, "INCLINATION": 86.1849, "RA_OF_ASC_NODE": 29.4472, "ARG_OF_PERICENTER": 181.4638, "MEAN_ANOMALY": 332.3745, "EPHEMERIS_TYPE": 0, "CLASSIFICATION_TYPE": "U", "NORAD_CAT_ID": 34696, "ELEMENT_SET_NO": 999, "REV_AT_EPOCH": 86612, "BSTAR": 0.0061608, "MEAN_MOTION_DOT": 0.00034329, "MEAN_MOTION_DDOT": 0}, "tle": {"line1": "1 34696U 97051KT  25342.60254226  .00034329  00000+0  61608-2 0  9996", "line2": "2 34696  86.1849  29.4472 0074318 181.4638 332.3745 14.64750758866125"}}, "geometry": {"type": "Point", "coordinates": [-109.18754909981732, -84.26748027880956]}}, {"type": "Feature", "properties": {"norad_id": 34765, "name": "IRIDIUM 33 DEB", "group": "iridium-33-debris", "lat": 76.22781692219482, "lon": -160.8751784152441, "alt_km": 755.3536661773132, "timestamp": "2025-12-09T05:43:21.110976+00:00", "meta": {"OBJECT_NAME": "IRIDIUM 33 DEB", "OBJECT_ID": "1997-051LJ", "EPOCH": "2025-12-08T02:42:04.212864", "MEAN_MOTION": 14.40446834, "ECCENTRICITY": 0.00149899, "INCLINATION": 86.3396, "RA_OF_ASC_NODE": 34.7471, "ARG_OF_PERICENTER": 227.7302, "MEAN_ANOMALY": 160.9531, "EPHEMERIS_TYPE": 0, "CLASSIFICATION_TYPE": "U", "NORAD_CAT_ID": 34765, "ELEMENT_SET_NO": 999, "REV_AT_EPOCH": 87547, "BSTAR": 0.00060973087, "MEAN_MOTION_DOT": 1.958e-05, "MEAN_MOTION_DDOT": 0}, "tle": {"line1": "1 34765U 97051LJ  25342.11254876  .00001958  00000+0  60973-3 0  9997", "line2": "2 34765  86.3396  34.7471 0014989 227.7302 160.9531 14.40446834875476"}}, "geometry": {"type": "Point", "coordinates": [-160.8751784152441, 76.22781692219482]}}]}